NORAD_CAT_ID,OBJECT_NAME,OBJECT_TYPE,EPOCH,MEAN_MOTION,ECCENTRICITY,INCLINATION,RA_OF_ASC_NODE,ARG_OF_PERICENTER,MEAN_ANOMALY,BSTAR,MEAN_MOTION_DOT,MEAN_MOTION_DDOT,TLE_LINE0,TLE_LINE1,TLE_LINE2,SEMIMAJOR_AXIS,PERIOD,APOGEE,PERIGEE,DECAYED
51870.0,STARLINK-3591,PAYLOAD,2023-10-05 11:10:42,15.08847419,0.0001382,53.218,27.5352,81.7941,278.3208,0.0016242,0.00025661,0.0,0 STARLINK-3591,1 51870U 22022U   23278.46576400  .00025661  00000-0  16242-2 0  9990,2 51870  53.2180  27.5352 0001382  81.7941 278.3208 15.08847419 89374,6917.858,95.437,540.679,538.767,0.0
51870.0,STARLINK-3591,PAYLOAD,2023-10-05 14:21:28,15.08863526,0.0001325,53.2181,26.9405,76.4343,283.6797,0.0025054,0.00039837,0.0,0 STARLINK-3591,1 51870U 22022U   23278.59824198  .00039837  00000-0  25054-2 0  9995,2 51870  53.2181  26.9405 0001325  76.4343 283.6797 15.08863526 89392,6917.808,95.436,540.59,538.757,0.0
51870.0,STARLINK-3591,PAYLOAD,2023-10-05 19:07:37,15.08877894,0.0001312,53.2179,26.0483,74.9452,285.1685,0.0028925,0.00046095,0.0,0 STARLINK-3591,1 51870U 22022U   23278.79695870  .00046095  00000-0  28925-2 0  9994,2 51870  53.2179  26.0483 0001312  74.9452 285.1685 15.08877894 89426,6917.765,95.435,540.537,538.722,0.0
51870.0,STARLINK-3591,PAYLOAD,2023-10-06 11:01:29,15.08838761,0.0001286,53.2177,23.0754,86.1305,273.9834,0.0014806,0.00023353,0.0,0 STARLINK-3591,1 51870U 22022U   23279.45936856  .00023353  00000-0  14806-2 0  9995,2 51870  53.2177  23.0754 0001286  86.1305 273.9834 15.08838761 89526,6917.884,95.438,540.639,538.86,0.0
51870.0,STARLINK-3591,PAYLOAD,2023-10-06 14:12:15,15.08846288,0.0001366,53.2178,22.4805,91.7456,268.3693,0.0023517,0.00037344,0.0,0 STARLINK-3591,1 51870U 22022U   23279.59184916  .00037344  00000-0  23517-2 0  9996,2 51870  53.2178  22.4805 0001366  91.7456 268.3693 15.08846288 89541,6917.861,95.437,540.671,538.781,0.0
51870.0,STARLINK-3591,PAYLOAD,2023-10-06 17:23:01,15.08857435,0.0001307,53.2176,21.8858,90.5893,269.5249,0.0025758,0.00040964,0.0,0 STARLINK-3591,1 51870U 22022U   23279.72432811  .00040964  00000-0  25758-2 0  9992,2 51870  53.2176  21.8858 0001307  90.5893 269.5249 15.08857435 89565,6917.827,95.436,540.596,538.788,0.0
51870.0,STARLINK-3591,PAYLOAD,2023-10-06 23:44:34,15.08845065,0.0002005,53.2186,20.6951,83.0202,277.1018,0.0011714,0.00018407,0.0,0 STARLINK-3591,1 51870U 22022U   23279.98929128  .00018407  00000-0  11714-2 0  9996,2 51870  53.2186  20.6951 0002005  83.0202 277.1018 15.08845065 89604,6917.865,95.437,541.117,538.343,0.0
51870.0,STARLINK-3591,PAYLOAD,2023-10-07 10:52:16,15.0884374,0.0001748,53.2201,18.6179,88.2658,271.8534,0.0007538,0.0001173,0.0,0 STARLINK-3591,1 51870U 22022U   23280.45297119  .00011730  00000-0  75380-3 0  9990,2 51870  53.2201  18.6179 0001748  88.2658 271.8534 15.08843740 89675,6917.869,95.437,540.943,538.525,0.0
51870.0,STARLINK-3591,PAYLOAD,2023-10-07 14:03:02,15.08847945,0.0001747,53.2192,18.0225,90.677,269.4422,0.0005688,8.778e-05,0.0,0 STARLINK-3591,1 51870U 22022U   23280.58544970  .00008778  00000-0  56880-3 0  9996,2 51870  53.2192  18.0225 0001747  90.6770 269.4422 15.08847945 89693,6917.856,95.437,540.93,538.513,0.0
51870.0,STARLINK-3591,PAYLOAD,2023-10-08 10:43:03,15.08840003,0.0001592,53.2182,14.1561,86.2566,273.8609,0.00011652,1.567e-05,0.0,0 STARLINK-3591,1 51870U 22022U   23281.44657199  .00001567  00000-0  11652-3 0  9997,2 51870  53.2182  14.1561 0001592  86.2566 273.8609 15.08840003 89823,6917.88,95.438,540.847,538.644,0.0
51870.0,STARLINK-3591,PAYLOAD,2023-10-08 13:53:49,15.08846518,0.0001613,53.2179,13.5617,83.9358,276.1818,0.000269,3.996e-05,0.0,0 STARLINK-3591,1 51870U 22022U   23281.57905025  .00003996  00000-0  26900-3 0  9995,2 51870  53.2179  13.5617 0001613  83.9358 276.1818 15.08846518 89848,6917.86,95.437,540.841,538.61,0.0
51870.0,STARLINK-3591,PAYLOAD,2023-10-08 15:29:12,15.08857441,0.0001365,53.2178,13.2613,100.3068,259.8079,0.00051977,7.998e-05,0.0,0 STARLINK-3591,1 51870U 22022U   23281.64528516  .00007998  00000-0  51977-3 0  9997,2 51870  53.2178  13.2613 0001365 100.3068 259.8079 15.08857441 89851,6917.827,95.436,540.636,538.748,0.0
51870.0,STARLINK-3591,PAYLOAD,2023-10-09 05:47:41,15.08841011,0.0001594,53.218,10.5871,90.0649,270.0526,9.0513e-05,1.153e-05,0.0,0 STARLINK-3591,1 51870U 22022U   23282.24145246  .00001153  00000-0  90513-4 0  9996,2 51870  53.2180  10.5871 0001594  90.0649 270.0526 15.08841011 89942,6917.877,95.437,540.845,538.64,0.0
51870.0,STARLINK-3591,PAYLOAD,2023-10-09 12:09:13,15.08846273,0.0001576,53.2174,9.3974,101.1201,258.9968,0.00035849,5.423e-05,0.0,0 STARLINK-3591,1 51870U 22022U   23282.50641010  .00005423  00000-0  35849-3 0  9999,2 51870  53.2174   9.3974 0001576 101.1201 258.9968 15.08846273 89987,6917.861,95.437,540.816,538.636,0.0
51870.0,STARLINK-3591,PAYLOAD,2023-10-09 18:30:46,15.08854059,0.000145,53.2174,8.2085,99.5737,260.5419,0.00060011,9.279e-05,0.0,0 STARLINK-3591,1 51870U 22022U   23282.77136807  .00009279  00000-0  60011-3 0  9993,2 51870  53.2174   8.2085 0001450  99.5737 260.5419 15.08854059 90021,6917.837,95.437,540.706,538.699,0.0
51870.0,STARLINK-3591,PAYLOAD,2023-10-10 10:24:37,15.08851397,0.0001804,53.2163,5.2344,80.219,279.9006,0.00042233,6.442e-05,0.0,0 STARLINK-3591,1 51870U 22022U   23283.43376857  .00006442  00000-0  42233-3 0  9993,2 51870  53.2163   5.2344 0001804  80.2190 279.9006 15.08851397 90126,6917.846,95.437,540.959,538.463,0.0
51870.0,STARLINK-3591,PAYLOAD,2023-10-10 12:00:00,15.08858275,0.0001674,53.2172,4.9357,87.9164,272.2019,0.0012608,0.00019845,0.0,0 STARLINK-3591,1 51870U 22022U   23283.50000779  .00019845  00000-0  12608-2 0  9991,2 51870  53.2172   4.9357 0001674  87.9164 272.2019 15.08858275 90139,6917.825,95.436,540.848,538.531,0.0
51870.0,STARLINK-3591,PAYLOAD,2023-10-10 16:46:09,15.08878491,0.0001569,53.2173,4.0443,78.4349,281.6819,0.0025721,0.00040928,0.0,0 STARLINK-3591,1 51870U 22022U   23283.69872425  .00040928  00000-0  25721-2 0  9992,2 51870  53.2173   4.0443 0001569  78.4349 281.6819 15.08878491 90167,6917.763,95.435,540.713,538.542,0.0
51870.0,STARLINK-3591,PAYLOAD,2023-10-11 11:50:48,15.08837802,0.0001546,53.2182,0.4745,94.1872,265.9297,0.0014546,0.00022936,0.0,0 STARLINK-3591,1 51870U 22022U   23284.49361355  .00022936  00000-0  14546-2 0  9998,2 51870  53.2182   0.4745 0001546  94.1872 265.9297 15.08837802 90282,6917.887,95.438,540.822,538.683,0.0
51870.0,STARLINK-3591,PAYLOAD,2023-10-12 11:41:35,15.08856952,0.0001448,53.218,356.0163,93.4765,266.6393,0.0018194,0.000288,0.0,0 STARLINK-3591,1 51870U 22022U   23285.48721621  .00028800  00000-0  18194-2 0  9993,2 51870  53.2180 356.0163 0001448  93.4765 266.6393 15.08856952 90437,6917.829,95.436,540.695,538.692,0.0
51870.0,STARLINK-3591,PAYLOAD,2023-10-12 14:52:21,15.08865343,0.0001476,53.2181,355.4213,95.0198,265.0962,0.0020245,0.00032101,0.0,0 STARLINK-3591,1 51870U 22022U   23285.61969416  .00032101  00000-0  20245-2 0  9993,2 51870  53.2181 355.4213 0001476  95.0198 265.0962 15.08865343 90457,6917.803,95.436,540.689,538.647,0.0
51870.0,STARLINK-3591,PAYLOAD,2023-10-13 05:10:49,15.08853059,0.0001724,53.2184,352.7455,94.2869,265.832,0.0013668,0.00021539,0.0,0 STARLINK-3591,1 51870U 22022U   23286.21585591  .00021539  00000-0  13668-2 0  9992,2 51870  53.2184 352.7455 0001724  94.2869 265.8320 15.08853059 90547,6917.84,95.437,540.898,538.513,0.0
51870.0,STARLINK-3591,PAYLOAD,2023-10-13 11:32:22,15.08857626,0.0001658,53.2178,351.5577,89.18,270.9382,0.0013172,0.00020748,0.0,0 STARLINK-3591,1 51870U 22022U   23286.48081430  .00020748  00000-0  13172-2 0  9995,2 51870  53.2178 351.5577 0001658  89.1800 270.9382 15.08857626 90589,6917.827,95.436,540.838,538.545,0.0
51870.0,STARLINK-3591,PAYLOAD,2023-10-13 21:04:41,15.08857496,0.0001637,53.218,349.7725,82.5731,277.5447,0.0013942,0.00021981,0.0,0 STARLINK-3591,1 51870U 22022U   23286.87825389  .00021981  00000-0  13942-2 0  9992,2 51870  53.2180 349.7725 0001637  82.5731 277.5447 15.08857496 90640,6917.827,95.436,540.824,538.559,0.0
51870.0,STARLINK-3591,PAYLOAD,2023-10-14 03:26:13,15.08852939,0.0001731,53.218,348.5859,94.7111,265.4079,0.00074955,0.00011665,0.0,0 STARLINK-3591,1 51870U 22022U   23287.14321262  .00011665  00000-0  74955-3 0  9994,2 51870  53.2180 348.5859 0001731  94.7111 265.4079 15.08852939 90685,6917.841,95.437,540.903,538.508,0.0
51870.0,STARLINK-3591,PAYLOAD,2023-10-14 11:23:09,15.0885235,0.0001648,53.2184,347.098,96.7405,263.3775,0.00028526,4.256e-05,0.0,0 STARLINK-3591,1 51870U 22022U   23287.47440978  .00004256  00000-0  28526-3 0  9997,2 51870  53.2184 347.0980 0001648  96.7405 263.3775 15.08852350 90736,6917.843,95.437,540.848,538.568,0.0
51870.0,STARLINK-3591,PAYLOAD,2023-10-14 20:55:27,15.08844221,0.0001661,53.2178,345.3116,79.7633,280.3547,0.00015845,2.235e-05,0.0,0 STARLINK-3591,1 51870U 22022U   23287.87185168  .00002235  00000-0  15845-3 0  9993,2 51870  53.2178 345.3116 0001661  79.7633 280.3547 15.08844221 90790,6917.867,95.437,540.882,538.583,0.0
51870.0,STARLINK-3591,PAYLOAD,2023-10-15 03:17:01,15.08823896,0.0001638,53.2172,344.1246,85.4774,274.6405,-0.00032111,-5.393e-05,0.0,0 STARLINK-3591,1 51870U 22022U   23288.13681936 -.00005393  00000-0 -32111-3 0  9992,2 51870  53.2172 344.1246 0001638  85.4774 274.6405 15.08823896 90838,6917.93,95.439,540.928,538.661,0.0
51870.0,STARLINK-3591,PAYLOAD,2023-10-15 11:13:57,15.08819654,0.0001618,53.2164,342.6365,80.7887,279.3288,-0.00020699,-3.579e-05,0.0,0 STARLINK-3591,1 51870U 22022U   23288.46802384 -.00003579  00000-0 -20699-3 0  9992,2 51870  53.2164 342.6365 0001618  80.7887 279.3288 15.08819654 90888,6917.943,95.439,540.927,538.688,0.0
51870.0,STARLINK-3591,PAYLOAD,2023-10-16 07:53:58,15.08855942,0.0001618,53.2159,338.7702,75.8119,284.3053,0.0014643,0.00023103,0.0,0 STARLINK-3591,1 51870U 22022U   23289.32914642  .00023103  00000-0  14643-2 0  9993,2 51870  53.2159 338.7702 0001618  75.8119 284.3053 15.08855942 91018,6917.832,95.437,540.816,538.577,0.0
